[{"OBJECT_NAME":"STARLINK-3909","OBJECT_ID":"2022-049B","EPOCH":"2026-03-03T08:44:01.432608","MEAN_MOTION":15.08840014,"ECCENTRICITY":0.00013106,"INCLINATION":53.2159,"RA_OF_ASC_NODE":97.3905,"ARG_OF_PERICENTER":89.3011,"MEAN_ANOMALY":270.8131,"EPHEMERIS_TYPE":0,"CLASSIFICATION_TYPE":"U","NORAD_CAT_ID":52452,"ELEMENT_SET_NO":999,"REV_AT_EPOCH":21115,"BSTAR":2.7567915e-5,"MEAN_MOTION_DOT":1.51e-6,"MEAN_MOTION_DDOT":0},{"OBJECT_NAME":"STARLINK-3872","OBJECT_ID":"2022-049C","EPOCH":"2026-03-03T09:52:54.860448","MEAN_MOTION":15.08854586,"ECCENTRICITY":0.00012423,"INCLINATION":53.2174,"RA_OF_ASC_NODE":97.3062,"ARG_OF_PERICENTER":86.6024,"MEAN_ANOMALY":273.511,"EPHEMERIS_TYPE":0,"CLASSIFICATION_TYPE":"U","NORAD_CAT_ID":52453,"ELEMENT_SET_NO":999,"REV_AT_EPOCH":21116,"BSTAR":0.00016982105,"MEAN_MOTION_DOT":2.417e-5,"MEAN_MOTION_DDOT":0},{"OBJECT_NAME":"STARLINK-3888","OBJECT_ID":"2022-049D","EPOCH":"2026-03-03T09:58:13.489824","MEAN_MOTION":15.08845592,"ECCENTRICITY":0.00013548,"INCLINATION":53.2173,"RA_OF_ASC_NODE":97.2897,"ARG_OF_PERICENTER":84.2782,"MEAN_ANOMALY":275.8365,"EPHEMERIS_TYPE":0,"CLASSIFICATION_TYPE":"U","NORAD_CAT_ID":52454,"ELEMENT_SET_NO":999,"REV_AT_EPOCH":21116,"BSTAR":7.751002e-5,"MEAN_MOTION_DOT":9.46e-6,"MEAN_MOTION_DDOT":0},{"OBJECT_NAME":"STARLINK-3890","OBJECT_ID":"2022-049E","EPOCH":"2026-03-03T09:49:01.073280","MEAN_MOTION":15.08838149,"ECCENTRICITY":0.00014451,"INCLINATION":53.218,"RA_OF_ASC_NODE":97.3186,"ARG_OF_PERICENTER":91.8955,"MEAN_ANOMALY":268.2203,"EPHEMERIS_TYPE":0,"CLASSIFICATION_TYPE":"U","NORAD_CAT_ID":52455,"ELEMENT_SET_NO":999,"REV_AT_EPOCH":21116,"BSTAR":1.9711973e-5,"MEAN_MOTION_DOT":2.6e-7,"MEAN_MOTION_DDOT":0},{"OBJECT_NAME":"STARLINK-3896","OBJECT_ID":"2022-049F","EPOCH":"2026-03-03T11:19:05.975616","MEAN_MOTION":15.08839556,"ECCENTRICITY":0.00012339,"INCLINATION":53.2163,"RA_OF_ASC_NODE":97.0371,"ARG_OF_PERICENTER":90.3879,"MEAN_ANOMALY":269.7254,"EPHEMERIS_TYPE":0,"CLASSIFICATION_TYPE":"U","NORAD_CAT_ID":52456,"ELEMENT_SET_NO":999,"REV_AT_EPOCH":21117,"BSTAR":6.4846358e-5,"MEAN_MOTION_DOT":7.44e-6,"MEAN_MOTION_DDOT":0},{"OBJECT_NAME":"STARLINK-3899","OBJECT_ID":"2022-049G","EPOCH":"2026-03-03T12:47:48.384096","MEAN_MOTION":15.08840285,"ECCENTRICITY":0.0001357,"INCLINATION":53.2171,"RA_OF_ASC_NODE":96.7495,"ARG_OF_PERICENTER":106.1426,"MEAN_ANOMALY":253.9715,"EPHEMERIS_TYPE":0,"CLASSIFICATION_TYPE":"U","NORAD_CAT_ID":52457,"ELEMENT_SET_NO":999,"REV_AT_EPOCH":21118,"BSTAR":2.2555e-5,"MEAN_MOTION_DOT":7.1e-7,"MEAN_MOTION_DDOT":0},{"OBJECT_NAME":"STARLINK-3898","OBJECT_ID":"2022-049H","EPOCH":"2026-03-03T12:43:53.497920","MEAN_MOTION":15.08835566,"ECCENTRICITY":0.0001348,"INCLINATION":53.2168,"RA_OF_ASC_NODE":96.7715,"ARG_OF_PERICENTER":92.0543,"MEAN_ANOMALY":268.0604,"EPHEMERIS_TYPE":0,"CLASSIFICATION_TYPE":"U","NORAD_CAT_ID":52458,"ELEMENT_SET_NO":999,"REV_AT_EPOCH":21118,"BSTAR":-6.9272e-6,"MEAN_MOTION_DOT":-3.98e-6,"MEAN_MOTION_DDOT":0},{"OBJECT_NAME":"STARLINK-3856","OBJECT_ID":"2022-049J","EPOCH":"2026-03-03T10:47:15.404640","MEAN_MOTION":15.08835004,"ECCENTRICITY":0.00013728,"INCLINATION":53.2168,"RA_OF_ASC_NODE":87.1349,"ARG_OF_PERICENTER":89.1641,"MEAN_ANOMALY":270.9509,"EPHEMERIS_TYPE":0,"CLASSIFICATION_TYPE":"U","NORAD_CAT_ID":52459,"ELEMENT_SET_NO":999,"REV_AT_EPOCH":21130,"BSTAR":2.128437e-5,"MEAN_MOTION_DOT":5.1e-7,"MEAN_MOTION_DDOT":0},{"OBJECT_NAME":"STARLINK-3900","OBJECT_ID":"2022-049L","EPOCH":"2026-03-03T07:32:31.202592","MEAN_MOTION":15.08828989,"ECCENTRICITY":0.0001171,"INCLINATION":53.2178,"RA_OF_ASC_NODE":77.7397,"ARG_OF_PERICENTER":110.5143,"MEAN_ANOMALY":249.5975,"EPHEMERIS_TYPE":0,"CLASSIFICATION_TYPE":"U","NORAD_CAT_ID":52461,"ELEMENT_SET_NO":999,"REV_AT_EPOCH":21142,"BSTAR":-5.0257312e-5,"MEAN_MOTION_DOT":-1.087e-5,"MEAN_MOTION_DDOT":0},{"OBJECT_NAME":"STARLINK-3903","OBJECT_ID":"2022-049M","EPOCH":"2026-03-03T10:38:02.344416","MEAN_MOTION":15.08844304,"ECCENTRICITY":0.00016085,"INCLINATION":53.2174,"RA_OF_ASC_NODE":87.1741,"ARG_OF_PERICENTER":93.7669,"MEAN_ANOMALY":266.3507,"EPHEMERIS_TYPE":0,"CLASSIFICATION_TYPE":"U","NORAD_CAT_ID":52462,"ELEMENT_SET_NO":999,"REV_AT_EPOCH":21130,"BSTAR":-6.3495494e-5,"MEAN_MOTION_DOT":-1.299e-5,"MEAN_MOTION_DDOT":0},{"OBJECT_NAME":"STARLINK-3885","OBJECT_ID":"2022-049N","EPOCH":"2026-03-03T07:27:12.400416","MEAN_MOTION":15.08839975,"ECCENTRICITY":0.00014209,"INCLINATION":53.2168,"RA_OF_ASC_NODE":77.7565,"ARG_OF_PERICENTER":89.9196,"MEAN_ANOMALY":270.1959,"EPHEMERIS_TYPE":0,"CLASSIFICATION_TYPE":"U","NORAD_CAT_ID":52463,"ELEMENT_SET_NO":999,"REV_AT_EPOCH":21142,"BSTAR":3.0296556e-5,"MEAN_MOTION_DOT":1.94e-6,"MEAN_MOTION_DDOT":0},{"OBJECT_NAME":"STARLINK-3904","OBJECT_ID":"2022-049P","EPOCH":"2026-03-03T10:41:57.243552","MEAN_MOTION":15.08839496,"ECCENTRICITY":0.0001311,"INCLINATION":53.2172,"RA_OF_ASC_NODE":87.1524,"ARG_OF_PERICENTER":91.2388,"MEAN_ANOMALY":268.8754,"EPHEMERIS_TYPE":0,"CLASSIFICATION_TYPE":"U","NORAD_CAT_ID":52464,"ELEMENT_SET_NO":999,"REV_AT_EPOCH":21130,"BSTAR":7.8460434e-5,"MEAN_MOTION_DOT":9.61e-6,"MEAN_MOTION_DDOT":0},{"OBJECT_NAME":"STARLINK-3863","OBJECT_ID":"2022-049Q","EPOCH":"2026-03-03T10:32:40.465536","MEAN_MOTION":15.08844028,"ECCENTRICITY":0.00012455,"INCLINATION":53.2166,"RA_OF_ASC_NODE":77.18,"ARG_OF_PERICENTER":88.5042,"MEAN_ANOMALY":271.6093,"EPHEMERIS_TYPE":0,"CLASSIFICATION_TYPE":"U","NORAD_CAT_ID":52465,"ELEMENT_SET_NO":999,"REV_AT_EPOCH":21144,"BSTAR":9.5781136e-5,"MEAN_MOTION_DOT":1.237e-5,"MEAN_MOTION_DDOT":0},{"OBJECT_NAME":"STARLINK-3873","OBJECT_ID":"2022-049S","EPOCH":"2026-03-03T10:31:22.359072","MEAN_MOTION":15.08840831,"ECCENTRICITY":0.00013207,"INCLINATION":53.2176,"RA_OF_ASC_NODE":87.1862,"ARG_OF_PERICENTER":122.1493,"MEAN_ANOMALY":237.9628,"EPHEMERIS_TYPE":0,"CLASSIFICATION_TYPE":"U","NORAD_CAT_ID":52467,"ELEMENT_SET_NO":999,"REV_AT_EPOCH":21130,"BSTAR":7.2532675e-5,"MEAN_MOTION_DOT":8.67e-6,"MEAN_MOTION_DDOT":0},{"OBJECT_NAME":"STARLINK-3864","OBJECT_ID":"2022-049T","EPOCH":"2026-03-03T08:34:46.270272","MEAN_MOTION":15.08835387,"ECCENTRICITY":0.00013157,"INCLINATION":53.2167,"RA_OF_ASC_NODE":87.5443,"ARG_OF_PERICENTER":101.6722,"MEAN_ANOMALY":258.4418,"EPHEMERIS_TYPE":0,"CLASSIFICATION_TYPE":"U","NORAD_CAT_ID":52468,"ELEMENT_SET_NO":999,"REV_AT_EPOCH":21129,"BSTAR":-7.881529e-6,"MEAN_MOTION_DOT":-4.13e-6,"MEAN_MOTION_DDOT":0},{"OBJECT_NAME":"STARLINK-3828","OBJECT_ID":"2022-049U","EPOCH":"2026-03-03T07:09:59.309568","MEAN_MOTION":15.0883639,"ECCENTRICITY":0.00012734,"INCLINATION":53.2166,"RA_OF_ASC_NODE":87.8175,"ARG_OF_PERICENTER":88.5677,"MEAN_ANOMALY":271.5461,"EPHEMERIS_TYPE":0,"CLASSIFICATION_TYPE":"U","NORAD_CAT_ID":52469,"ELEMENT_SET_NO":999,"REV_AT_EPOCH":21128,"BSTAR":1.3208047e-5,"MEAN_MOTION_DOT":-7.8e-7,"MEAN_MOTION_DDOT":0}]
