STARLINK-3909           
1 52452U 22049B   26062.36390547  .00000151  00000+0  27568-4 0  9996
2 52452  53.2159  97.3905 0001310  89.3011 270.8131 15.08840014211158
STARLINK-3872           
1 52453U 22049C   26062.41174607  .00002417  00000+0  16982-3 0  9994
2 52453  53.2174  97.3062 0001242  86.6024 273.5110 15.08854586211165
STARLINK-3888           
1 52454U 22049D   26062.41543391  .00000946  00000+0  77510-4 0  9995
2 52454  53.2173  97.2897 0001354  84.2782 275.8365 15.08845592211163
STARLINK-3890           
1 52455U 22049E   26062.40904020  .00000026  00000+0  19712-4 0  9994
2 52455  53.2180  97.3186 0001445  91.8955 268.2203 15.08838149211168
STARLINK-3896           
1 52456U 22049F   26062.47159694  .00000744  00000+0  64846-4 0  9996
2 52456  53.2163  97.0371 0001233  90.3879 269.7254 15.08839556211173
STARLINK-3899           
1 52457U 22049G   26062.53319889  .00000071  00000+0  22555-4 0  9992
2 52457  53.2171  96.7495 0001357 106.1426 253.9715 15.08840285211186
STARLINK-3898           
1 52458U 22049H   26062.53048030 -.00000398  00000+0 -69272-5 0  9992
2 52458  53.2168  96.7715 0001348  92.0543 268.0604 15.08835566211181
STARLINK-3856           
1 52459U 22049J   26062.44948385  .00000051  00000+0  21284-4 0  9999
2 52459  53.2168  87.1349 0001372  89.1641 270.9509 15.08835004211309
STARLINK-3900           
1 52461U 22049L   26062.31425003 -.00001087  00000+0 -50257-4 0  9999
2 52461  53.2178  77.7397 0001171 110.5143 249.5975 15.08828989211420
STARLINK-3903           
1 52462U 22049M   26062.44308269 -.00001299  00000+0 -63495-4 0  9991
2 52462  53.2174  87.1741 0001608  93.7669 266.3507 15.08844304211309
STARLINK-3885           
1 52463U 22049N   26062.31056019  .00000194  00000+0  30297-4 0  9996
2 52463  53.2168  77.7565 0001420  89.9196 270.1959 15.08839975211421
STARLINK-3904           
1 52464U 22049P   26062.44580143  .00000961  00000+0  78460-4 0  9997
2 52464  53.2172  87.1524 0001311  91.2388 268.8754 15.08839496211307
STARLINK-3863           
1 52465U 22049Q   26062.43935724  .00001237  00000+0  95781-4 0  9998
2 52465  53.2166  77.1800 0001245  88.5042 271.6093 15.08844028211449
STARLINK-3873           
1 52467U 22049S   26062.43845323  .00000867  00000+0  72533-4 0  9993
2 52467  53.2176  87.1862 0001320 122.1493 237.9628 15.08840831211302
STARLINK-3864           
1 52468U 22049T   26062.35747998 -.00000413  00000+0 -78815-5 0  9993
2 52468  53.2167  87.5443 0001315 101.6722 258.4418 15.08835387211296
STARLINK-3828           
1 52469U 22049U   26062.29860312 -.00000078  00000+0  13208-4 0  9993
2 52469  53.2166  87.8175 0001273  88.5677 271.5461 15.08836390211284
